[{"OBJECT_NAME":"KUIPER-00070","OBJECT_ID":"2025-151B","EPOCH":"2026-03-09T20:32:33.833760","MEAN_MOTION":14.799361,"ECCENTRICITY":9.451e-5,"INCLINATION":51.9,"RA_OF_ASC_NODE":304.8248,"ARG_OF_PERICENTER":102.7727,"MEAN_ANOMALY":257.3341,"EPHEMERIS_TYPE":0,"CLASSIFICATION_TYPE":"U","NORAD_CAT_ID":64817,"ELEMENT_SET_NO":999,"REV_AT_EPOCH":3644,"BSTAR":0.00022632458,"MEAN_MOTION_DOT":1.505e-5,"MEAN_MOTION_DDOT":0},{"OBJECT_NAME":"SL-14 R\/B","OBJECT_ID":"1986-046B","EPOCH":"2026-03-09T12:54:35.152704","MEAN_MOTION":14.85590147,"ECCENTRICITY":0.00219619,"INCLINATION":82.4783,"RA_OF_ASC_NODE":80.3252,"ARG_OF_PERICENTER":225.8935,"MEAN_ANOMALY":134.0474,"EPHEMERIS_TYPE":0,"CLASSIFICATION_TYPE":"U","NORAD_CAT_ID":16792,"ELEMENT_SET_NO":999,"REV_AT_EPOCH":12638,"BSTAR":6.3515191e-5,"MEAN_MOTION_DOT":5.75e-6,"MEAN_MOTION_DDOT":0}]
